NORAD_CAT_ID,OBJECT_NAME,OBJECT_TYPE,EPOCH,MEAN_MOTION,ECCENTRICITY,INCLINATION,RA_OF_ASC_NODE,ARG_OF_PERICENTER,MEAN_ANOMALY,BSTAR,MEAN_MOTION_DOT,MEAN_MOTION_DDOT,TLE_LINE0,TLE_LINE1,TLE_LINE2,SEMIMAJOR_AXIS,PERIOD,APOGEE,PERIGEE,DECAYED
51812.0,STARLINK-3610,PAYLOAD,2022-04-13 20:00:01,15.73206157,0.0001128,53.2126,270.03,69.9359,225.5512,0.00015453,0.00021127,0.0,0 STARLINK-3610,1 51812U 22017AW  22103.83335648  .00021127  00000-0  15453-3 0  9991,2 51812  53.2126 270.0300 0001128  69.9359 225.5512 15.73206157  8651,6727.878000000002,91.533,350.50199999999984,348.9840000000001,0.0
51812.0,STARLINK-3610,PAYLOAD,2022-04-13 22:00:00,15.73208845,0.00011,53.2123,269.6177,66.72399999999999,340.9341,0.00011173,0.00015095,0.0,0 STARLINK-3610,1 51812U 22017AW  22103.91667824  .00015095  00000-0  11173-3 0  9996,2 51812  53.2123 269.6177 0001100  66.7240 340.9341 15.73208845  3707,6727.87,91.533,350.475,348.995,0.0
51812.0,STARLINK-3610,PAYLOAD,2022-04-14 04:00:00,15.73189424,0.0001083,53.2122,268.3788,78.9596,305.4031,5.8678e-05,7.619e-05,0.0,0 STARLINK-3610,1 51812U 22017AW  22104.16667824  .00007619  00000-0  58678-4 0  9999,2 51812  53.2122 268.3788 0001083  78.9596 305.4031 15.73189424  8718,6727.925,91.534,350.519,349.06199999999984,0.0
51812.0,STARLINK-3610,PAYLOAD,2022-04-14 14:00:01,15.73246016,0.0001199,53.2125,266.317,81.3885,144.094,-0.00075248,-0.00105121,0.0,0 STARLINK-3610,1 51812U 22017AW  22104.58334491 -.00105121  00000-0 -75248-3 0  9996,2 51812  53.2125 266.3170 0001199  81.3885 144.0940 15.73246016  3702,6727.764,91.531,350.436,348.82199999999995,0.0
51812.0,STARLINK-3610,PAYLOAD,2022-04-14 22:00:00,15.73149606,0.0001178,53.2125,264.6686,64.8533,249.5951,0.00031577,0.00043832,0.0,0 STARLINK-3610,1 51812U 22017AW  22104.91667824  .00043832  00000-0  31577-3 0  9997,2 51812  53.2125 264.6686 0001178  64.8533 249.5951 15.73149606  3708,6728.0390000000025,91.536,350.696,349.111,0.0
51812.0,STARLINK-3610,PAYLOAD,2022-04-15 12:00:00,15.73264305,0.000106,53.2131,261.7795,69.4065,310.6582,0.00052306,0.00073637,0.0,0 STARLINK-3610,1 51812U 22017AW  22105.50001157  .00073637  00000-0  52306-3 0  9993,2 51812  53.2131 261.7795 0001060  69.4065 310.6582 15.73264305  8928,6727.712,91.529,350.29,348.86400000000015,0.0
51812.0,STARLINK-3610,PAYLOAD,2022-04-15 14:00:01,15.73296643,0.0001075,53.213,261.3676,64.8783,67.4349,0.00015312,0.00021012,0.0,0 STARLINK-3610,1 51812U 22017AW  22105.58334491  .00021012  00000-0  15312-3 0  9997,2 51812  53.2130 261.3676 0001075  64.8783  67.4349 15.73296643  3690,6727.62,91.528,350.208,348.761,0.0
51812.0,STARLINK-3610,PAYLOAD,2022-04-15 20:00:01,15.73278148,0.0001166,53.213,260.1316,55.8509,53.2221,-0.00022271,-0.00031862,0.0,0 STARLINK-3610,1 51812U 22017AW  22105.83334491 -.00031862  00000-0 -22271-3 0  9993,2 51812  53.2130 260.1316 0001166  55.8509  53.2221 15.73278148  8973,6727.672,91.529,350.32199999999995,348.75300000000016,0.0
51812.0,STARLINK-3610,PAYLOAD,2022-04-15 22:00:00,15.73270869,0.0001163,53.2125,259.719,54.7482,166.5819,-0.0002389,-0.00034114,0.0,0 STARLINK-3610,1 51812U 22017AW  22105.91667824 -.00034114  00000-0 -23890-3 0  9992,2 51812  53.2125 259.7190 0001163  54.7482 166.5819 15.73270869  3682,6727.693,91.529,350.341,348.776,0.0
51812.0,STARLINK-3610,PAYLOAD,2022-04-16 04:00:00,15.73269652,0.0001259,53.2127,258.4799,66.4583,131.6226,-0.0010809,-0.00150088,0.0,0 STARLINK-3610,1 51812U 22017AW  22106.16667824 -.00150088  00000-0 -10809-2 0  9994,2 51812  53.2127 258.4799 0001259  66.4583 131.6226 15.73269652  9020,6727.696999999999,91.529,350.409,348.715,0.0
51812.0,STARLINK-3610,PAYLOAD,2022-04-16 14:00:01,15.73129409,0.0001429,53.213,256.4184,70.2014,329.0548,-0.0007876,-0.001094,0.0,0 STARLINK-3610,1 51812U 22017AW  22106.58334491 -.00109400  00000-0 -78760-3 0  9994,2 51812  53.2130 256.4184 0001429  70.2014 329.0548 15.73129409  3705,6728.096,91.537,350.923,349.0,0.0
51812.0,STARLINK-3610,PAYLOAD,2022-04-16 20:00:01,15.72972446,0.0001386999999999,53.2132,255.1827,60.6681,315.1704,0.0017437,0.00249057,0.0,0 STARLINK-3610,1 51812U 22017AW  22106.83334491  .00249057  00000-0  17437-2 0  9996,2 51812  53.2132 255.1827 0001387  60.6681 315.1704 15.72972446  9132,6728.544,91.546,351.342,349.476,0.0
51812.0,STARLINK-3610,PAYLOAD,2022-04-16 22:00:01,15.73040951,0.0001293,53.213,254.7701,57.4106,70.6572,0.0012085,0.00171316,0.0,0 STARLINK-3610,1 51812U 22017AW  22106.91668981  .00171316  00000-0  12085-2 0  9995,2 51812  53.2130 254.7701 0001293  57.4106  70.6572 15.73040951  3709,6728.349,91.542,351.084,349.344,0.0
51812.0,STARLINK-3610,PAYLOAD,2022-04-17 04:00:00,15.73133126,0.0001106,53.2135,253.5314,58.5279,46.0774,0.00053032,0.00074253,0.0,0 STARLINK-3610,1 51812U 22017AW  22107.16667824  .00074253  00000-0  53032-3 0  9998,2 51812  53.2135 253.5314 0001106  58.5279  46.0774 15.73133126  9183,6728.0859999999975,91.537,350.695,349.207,0.0
51812.0,STARLINK-3610,PAYLOAD,2022-04-17 14:00:01,15.73260936,0.0001353,53.2136,251.4702,58.6886,246.9764,-0.00018904,-0.00027135,0.0,0 STARLINK-3610,1 51812U 22017AW  22107.58334491 -.00027135  00000-0 -18904-3 0  9993,2 51812  53.2136 251.4702 0001353  58.6886 246.9764 15.73260936  3714,6727.721,91.53,350.497,348.676,0.0
51812.0,STARLINK-3610,PAYLOAD,2022-04-17 22:00:00,15.73268939,0.0001457,53.2132,249.8212,49.7418,344.9679,-0.00036081,-0.00051101,0.0,0 STARLINK-3610,1 51812U 22017AW  22107.91667824 -.00051101  00000-0 -36081-3 0  9995,2 51812  53.2132 249.8212 0001457  49.7418 344.9679 15.73268939  3696,6727.699000000001,91.529,350.5440000000001,348.583,0.0
51812.0,STARLINK-3610,PAYLOAD,2022-04-18 04:00:00,15.732112699999998,0.0001314,53.2134,248.5822,57.9005,313.5652,0.00028699,0.00039868,0.0,0 STARLINK-3610,1 51812U 22017AW  22108.16667824  .00039868  00000-0  28699-3 0  9993,2 51812  53.2134 248.5822 0001314  57.9005 313.5652 15.73211270  9343,6727.863,91.533,350.612,348.844,0.0
51812.0,STARLINK-3610,PAYLOAD,2022-04-18 12:00:00,15.73234539,0.0001299,53.2136,246.9331,56.4123,44.0028,-0.00027287,-0.00038796,0.0,0 STARLINK-3610,1 51812U 22017AW  22108.50001157 -.00038796  00000-0 -27287-3 0  9995,2 51812  53.2136 246.9331 0001299  56.4123  44.0028 15.73234539  9390,6727.797,91.531,350.536,348.788,0.0
51812.0,STARLINK-3610,PAYLOAD,2022-04-18 14:00:01,15.7322779,0.000134,53.2135,246.5213,52.5645,160.0935,-0.00031896,-0.00045197,0.0,0 STARLINK-3610,1 51812U 22017AW  22108.58334491 -.00045197  00000-0 -31896-3 0  9997,2 51812  53.2135 246.5213 0001340  52.5645 160.0935 15.73227790  3714,6727.816,91.532,350.582,348.779,0.0
51812.0,STARLINK-3610,PAYLOAD,2022-04-18 20:00:01,15.73201738,0.0001434,53.2135,245.2851,44.5369,144.8574,0.00014683,0.00020037,0.0,0 STARLINK-3610,1 51812U 22017AW  22108.83334491  .00020037  00000-0  14683-3 0  9994,2 51812  53.2135 245.2851 0001434  44.5369 144.8574 15.73201738  9445,6727.89,91.533,350.72,348.79,0.0
51812.0,STARLINK-3610,PAYLOAD,2022-04-18 22:00:00,15.73223384,0.0001413,53.2134,244.8722,43.0645,258.5599,-0.00022116,-0.00031573,0.0,0 STARLINK-3610,1 51812U 22017AW  22108.91667824 -.00031573  00000-0 -22116-3 0  9991,2 51812  53.2134 244.8722 0001413  43.0645 258.5599 15.73223384  3708,6727.829000000002,91.532,350.644,348.74300000000005,0.0
51812.0,STARLINK-3610,PAYLOAD,2022-04-19 04:00:00,15.73161713,0.0001298,53.2139,243.6334,47.8516,230.4826,0.0004138999999999,0.00057773,0.0,0 STARLINK-3610,1 51812U 22017AW  22109.16667824  .00057773  00000-0  41390-3 0  9992,2 51812  53.2139 243.6334 0001298  47.8516 230.4826 15.73161713  9490,6728.004,91.535,350.74300000000005,348.996,0.0
51812.0,STARLINK-3610,PAYLOAD,2022-04-19 14:00:01,15.73244268,0.0001513,53.2138,241.5726,44.6274,74.8315,-0.00025032,-0.0003567,0.0,0 STARLINK-3610,1 51812U 22017AW  22109.58334491 -.00035670  00000-0 -25032-3 0  9998,2 51812  53.2138 241.5726 0001513  44.6274  74.8315 15.73244268  3705,6727.769,91.531,350.652,348.616,0.0
51812.0,STARLINK-3610,PAYLOAD,2022-04-19 20:00:01,15.73224269,0.0001639,53.2135,240.3362,41.03,55.1713,2.5502e-05,2.963e-05,0.0,0 STARLINK-3610,1 51812U 22017AW  22109.83334491  .00002963  00000-0  25502-4 0  9996,2 51812  53.2135 240.3362 0001639  41.0300  55.1713 15.73224269  9603,6727.826,91.532,350.7940000000001,348.588,0.0
51812.0,STARLINK-3610,PAYLOAD,2022-04-20 04:00:00,15.73191375,0.000145,53.2134,238.6846,45.3168,139.8425,-0.00012552,-0.00018192,0.0,0 STARLINK-3610,1 51812U 22017AW  22110.16667824 -.00018192  00000-0 -12552-3 0  9996,2 51812  53.2134 238.6846 0001450  45.3168 139.8425 15.73191375  9655,6727.92,91.534,350.76,348.809,0.0
51812.0,STARLINK-3610,PAYLOAD,2022-04-20 14:00:01,15.73152185,0.0001681,53.2134,236.6242,45.3564,340.9257,0.00020218,0.00027791,0.0,0 STARLINK-3610,1 51812U 22017AW  22110.58334491  .00027791  00000-0  20218-3 0  9994,2 51812  53.2134 236.6242 0001681  45.3564 340.9257 15.73152185  3703,6728.031,91.536,351.027,348.766,0.0
51812.0,STARLINK-3610,PAYLOAD,2022-04-20 20:00:01,15.73166417,0.0001763,53.2131,235.3878,39.1307,323.8214,0.00062943,0.00088526,0.0,0 STARLINK-3610,1 51812U 22017AW  22110.83334491  .00088526  00000-0  62943-3 0  9996,2 51812  53.2131 235.3878 0001763  39.1307 323.8214 15.73166417  9766,6727.991,91.535,351.042,348.67,0.0
51812.0,STARLINK-3610,PAYLOAD,2022-04-20 22:00:00,15.73214499,0.0001725,53.2131,234.9748,40.037,75.1318,1.8216e-05,1.938e-05,0.0,0 STARLINK-3610,1 51812U 22017AW  22110.91667824  .00001938  00000-0  18216-4 0  9991,2 51812  53.2131 234.9748 0001725  40.0370  75.1318 15.73214499  3687,6727.854,91.532,350.879,348.55800000000005,0.0
51812.0,STARLINK-3610,PAYLOAD,2022-04-21 04:00:00,15.73183181,0.0001493,53.2147,233.7309,40.4775,51.3938,0.00012493,0.00016936,0.0,0 STARLINK-3610,1 51812U 22017AW  22111.16667824  .00016936  00000-0  12493-3 0  9993,2 51812  53.2147 233.7309 0001493  40.4775  51.3938 15.73183181  9817,6727.943,91.534,350.81300000000016,348.80400000000014,0.0
